KUIPER-00089            
1 64834U 25151U   26015.59643994  .00001974  00000+0  28797-3 0  9998
2 64834  51.8997 160.3659 0001653 152.0335 208.0717 14.79927056 27655
KUIPER-00090            
1 64835U 25151V   26014.65291655  .00080391  00000+0  11210-1 0  9998
2 64835  51.8989 157.0153 0002872 167.1208 192.9827 14.76953288 27611
KUIPER-00091            
1 64836U 25151W   26015.59912302  .00002234  00000+0  32209-3 0  9995
2 64836  51.9000 157.8601 0007681 121.1135 239.0582 14.79933419 27680
KUIPER-00092            
1 64837U 25151X   26015.59108582  .00002149  00000+0  31103-3 0  9990
2 64837  51.9004 165.3938 0002898 112.7779 247.3489 14.79911806 28794
KUIPER-00093            
1 64838U 25151Y   26015.58832842 -.00000550  00000+0 -43020-4 0  9991
2 64838  51.9000 167.8902 0002896 113.2050 246.9218 14.79945999 27542
KUIPER-00094            
1 64839U 25151Z   26015.58912813  .00000992  00000+0  88089-4 0  9991
2 64839  51.8888 146.6177 0004505  96.4179 263.7307 15.05232522 27848
KUIPER-00081            
1 65132U 25171A   26015.44090052 -.00007877  00000+0 -10067-2 0  9997
2 65132  51.9012  23.5373 0001483  52.1579 307.9518 14.79879014 25151
KUIPER-00088            
1 65133U 25171B   26015.27558876  .00002534  00000+0  34845-3 0  9996
2 65133  51.9017  42.3557 0000853 142.3343 217.7680 14.81491786 24876
